OBJECT_NAME,OBJECT_ID,EPOCH,MEAN_MOTION,ECCENTRICITY,INCLINATION,RA_OF_ASC_NODE,ARG_OF_PERICENTER,MEAN_ANOMALY,EPHEMERIS_TYPE,CLASSIFICATION_TYPE,NORAD_CAT_ID,ELEMENT_SET_NO,REV_AT_EPOCH,BSTAR,MEAN_MOTION_DOT,MEAN_MOTION_DDOT
HODOYOSHI-4,2014-033B,2026-06-25T20:13:09.788160,14.88143804,.0022137,97.5456,1.2475,278.1071,81.7635,0,U,40011,999,65009,.11174E-3,.981E-5,0
DEIMOS-2,2014-033D,2026-06-25T19:47:24.014400,14.93748854,.0001335,97.5830,51.0101,56.4467,303.6881,0,U,40013,999,63901,.12095E-3,.1227E-4,0
HODOYOSHI-3,2014-033F,2026-06-25T09:40:49.210176,14.85403926,.0031994,97.6424,339.1133,329.8165,30.1207,0,U,40015,999,64884,.1221E-3,.1008E-4,0
SPOT 7,2014-034A,2026-06-25T19:28:05.729088,14.60964437,.0001346,98.0629,239.0809,94.3446,265.7909,0,U,40053,999,63839,.67747E-4,.287E-5,0
SKYSAT-B,2014-037D,2026-06-25T20:48:08.819136,14.88047756,.0004236,98.3841,136.3265,243.9459,116.1320,0,U,40072,999,64725,.13738E-3,.1201E-4,0
WORLDVIEW-3 (WV-3),2014-048A,2026-06-25T20:37:31.459296,14.85034755,.0000284,97.8564,251.5725,19.0031,341.1194,0,U,40115,999,64319,.97219E-4,.776E-5,0
GAOFEN-2,2014-049A,2026-06-25T19:47:59.087616,14.80907827,.0006682,98.0109,241.0243,194.7882,165.3135,0,U,40118,999,64051,.10994E-3,.796E-5,0
YAOGAN-21,2014-053A,2026-06-25T21:09:12.282624,15.26493487,.0009755,97.1476,216.7432,68.6547,291.5733,0,U,40143,999,65628,.33675E-3,.8733E-4,0
YAOGAN-22,2014-063A,2026-06-25T20:31:55.955136,13.15531156,.0006539,100.7734,328.2730,166.1314,193.9978,0,U,40275,999,56095,.27712E-4,-.36E-6,0
ASNARO,2014-070A,2026-06-25T20:26:51.878976,15.19553884,.0006344,97.3454,252.7318,138.5803,221.5914,0,U,40298,999,64532,.46728E-3,.9879E-4,0
YAOGAN-24,2014-072A,2026-06-25T19:49:19.574400,14.76096588,.0013266,98.1494,314.2376,234.2292,125.7685,0,U,40310,999,62499,.12103E-3,.783E-5,0
CBERS 4,2014-079A,2026-06-25T21:20:40.100064,14.35511060,.000159,98.3533,233.4480,55.0498,305.0837,0,U,40336,999,60520,.55596E-4,.118E-5,0
YAOGAN-26,2014-088A,2026-06-25T19:09:41.607072,15.47680086,.0005075,97.0640,176.8067,46.7172,313.4502,0,U,40362,999,63903,.56865E-3,.29382E-3,0
SMAP,2015-003A,2026-06-25T19:58:08.770080,14.63373459,.0001419,98.1276,183.8040,98.6652,261.4711,0,U,40376,999,60888,.86739E-4,.401E-5,0
KOMPSAT-3A,2015-014A,2026-06-25T20:52:03.026208,15.54396442,.005714,97.6883,168.8681,143.4619,217.0553,0,U,40536,999,62316,.45298E-3,.31893E-3,0
SENTINEL-2A,2015-028A,2026-06-25T19:35:10.737600,14.30817643,.0001156,98.5683,251.5455,91.4171,268.7144,0,U,40697,999,57496,.70862E-4,.142E-5,0
GAOFEN-8,2015-030A,2026-06-25T19:48:13.650336,15.46257716,.0009358,97.6904,10.7158,157.1319,203.0348,0,U,40701,999,61278,.61836E-3,.30461E-3,0
CARBONITE 1 (CBNT-1),2015-032D,2026-06-25T19:34:18.450048,14.83610389,.001291,97.6513,354.5210,266.8448,93.1289,0,U,40718,999,59062,.18794E-3,.1501E-4,0
YAOGAN-27,2015-040A,2026-06-25T20:19:38.691840,13.16071769,.0007924,100.1154,162.8536,189.3994,170.6973,0,U,40878,999,51880,.69808E-3,.223E-5,0
GAOFEN-9 01,2015-047A,2026-06-25T20:01:53.805792,14.82899328,.0028815,97.6272,212.1364,110.7318,249.6988,0,U,40894,999,58147,.12566E-3,.975E-5,0
YAOGAN-28,2015-064A,2026-06-25T20:08:15.763776,15.27523404,.0011373,97.3078,314.9251,153.9050,206.2765,0,U,41026,999,59200,.27853E-3,.744E-4,0
YAOGAN-29,2015-069A,2026-06-25T21:08:53.737728,14.83088991,.0002178,98.0031,205.5275,40.1431,319.9943,0,U,41038,999,57191,-.21117E-4,-.226E-5,0
KENT RIDGE 1,2015-077B,2026-06-25T09:56:55.025664,15.23176152,.0008195,14.9783,204.8006,354.5762,5.4470,0,U,41167,999,58235,.13448E-3,.4041E-4,0
GAOFEN-4,2015-083A,2026-06-25T19:56:50.822592,1.00271100,.0004035,0.3803,83.9151,114.0016,120.9663,0,U,41194,999,3861,0,-.324E-5,0
JASON-3,2016-002A,2026-06-25T20:34:13.255104,12.87556162,.0008414,66.0414,107.6084,272.3420,87.6635,0,U,41240,999,48836,-.47829E-4,-.74E-6,0
SENTINEL-3A,2016-011A,2026-06-25T20:13:15.582144,14.26734833,.0001432,98.6246,244.1018,97.2129,262.9215,0,U,41335,999,53929,.53796E-4,.87E-6,0
ZIYUAN 3-02 (ZY 3-02),2016-033A,2026-06-25T20:56:10.662432,15.21256334,.0012445,97.3838,252.4796,257.2436,102.7409,0,U,41556,999,55930,.27114E-3,.6001E-4,0
CARTOSAT-2C,2016-040A,2026-06-25T19:41:40.418880,15.19254959,.0010485,97.4485,236.6797,104.7973,255.4424,0,U,41599,999,55502,.2582E-3,.5382E-4,0
SKYSAT-C1,2016-040C,2026-06-25T14:50:21.564960,15.36434145,.000268,96.9565,207.8813,41.1254,319.0193,0,U,41601,999,55916,.31178E-3,.11011E-3,0
LAPAN-A3,2016-040E,2026-06-25T19:21:29.831328,15.33156778,.0009787,97.1488,172.6689,355.9027,4.2135,0,U,41603,999,55613,.13183E-3,.4153E-4,0
GAOFEN-3,2016-049A,2026-06-25T21:28:46.594272,14.42215736,.0001584,98.4014,184.5493,96.5932,263.5438,0,U,41727,999,51990,-.21804E-4,-.115E-5,0
