HODOYOSHI-4             
1 40011U 14033B   26176.84247440  .00000981  00000+0  11174-3 0  9996
2 40011  97.5456   1.2475 0022137 278.1071  81.7635 14.88143804650095
DEIMOS-2                
1 40013U 14033D   26176.82458350  .00001227  00000+0  12095-3 0  9997
2 40013  97.5830  51.0101 0001335  56.4467 303.6881 14.93748854639015
HODOYOSHI-3             
1 40015U 14033F   26176.40334734  .00001008  00000+0  12210-3 0  9998
2 40015  97.6424 339.1133 0031994 329.8165  30.1207 14.85403926648842
SPOT 7                  
1 40053U 14034A   26176.81117742  .00000287  00000+0  67747-4 0  9998
2 40053  98.0629 239.0809 0001346  94.3446 265.7909 14.60964437638394
SKYSAT-B                
1 40072U 14037D   26176.86676874  .00001201  00000+0  13738-3 0  9990
2 40072  98.3841 136.3265 0004236 243.9459 116.1320 14.88047756647253
WORLDVIEW-3 (WV-3)      
1 40115U 14048A   26176.85939189  .00000776  00000+0  97219-4 0  9993
2 40115  97.8564 251.5725 0000284  19.0031 341.1194 14.85034755643195
GAOFEN-2                
1 40118U 14049A   26176.82498944  .00000796  00000+0  10994-3 0  9999
2 40118  98.0109 241.0243 0006682 194.7882 165.3135 14.80907827640516
YAOGAN-21               
1 40143U 14053A   26176.88139216  .00008733  00000+0  33675-3 0  9992
2 40143  97.1476 216.7432 0009755  68.6547 291.5733 15.26493487656281
YAOGAN-22               
1 40275U 14063A   26176.85550874 -.00000036  00000+0  27712-4 0  9998
2 40275 100.7734 328.2730 0006539 166.1314 193.9978 13.15531156560954
ASNARO                  
1 40298U 14070A   26176.85198934  .00009879  00000+0  46728-3 0  9996
2 40298  97.3454 252.7318 0006344 138.5803 221.5914 15.19553884645323
YAOGAN-24               
1 40310U 14072A   26176.82592100  .00000783  00000+0  12103-3 0  9998
2 40310  98.1494 314.2376 0013266 234.2292 125.7685 14.76096588624991
CBERS 4                 
1 40336U 14079A   26176.88935301  .00000118  00000+0  55596-4 0  9999
2 40336  98.3533 233.4480 0001590  55.0498 305.0837 14.35511060605204
YAOGAN-26               
1 40362U 14088A   26176.79839823  .00029382  00000+0  56865-3 0  9993
2 40362  97.0640 176.8067 0005075  46.7172 313.4502 15.47680086639036
SMAP                    
1 40376U 15003A   26176.83204595  .00000401  00000+0  86739-4 0  9998
2 40376  98.1276 183.8040 0001419  98.6652 261.4711 14.63373459608887
KOMPSAT-3A              
1 40536U 15014A   26176.86947947  .00031893  00000+0  45298-3 0  9999
2 40536  97.6883 168.8681 0057140 143.4619 217.0553 15.54396442623168
SENTINEL-2A             
1 40697U 15028A   26176.81609650  .00000142  00000+0  70862-4 0  9992
2 40697  98.5683 251.5455 0001156  91.4171 268.7144 14.30817643574960
GAOFEN-8                
1 40701U 15030A   26176.82515799  .00030461  00000+0  61836-3 0  9999
2 40701  97.6904  10.7158 0009358 157.1319 203.0348 15.46257716612781
CARBONITE 1 (CBNT-1)    
1 40718U 15032D   26176.81549132  .00001501  00000+0  18794-3 0  9994
2 40718  97.6513 354.5210 0012910 266.8448  93.1289 14.83610389590621
YAOGAN-27               
1 40878U 15040A   26176.84697560  .00000223  00000+0  69808-3 0  9994
2 40878 100.1154 162.8536 0007924 189.3994 170.6973 13.16071769518803
GAOFEN-9 01             
1 40894U 15047A   26176.83465053  .00000975  00000+0  12566-3 0  9991
2 40894  97.6272 212.1364 0028815 110.7318 249.6988 14.82899328581479
YAOGAN-28               
1 41026U 15064A   26176.83907134  .00007440  00000+0  27853-3 0  9998
2 41026  97.3078 314.9251 0011373 153.9050 206.2765 15.27523404592009
YAOGAN-29               
1 41038U 15069A   26176.88117752 -.00000226  00000+0 -21117-4 0  9995
2 41038  98.0031 205.5275 0002178  40.1431 319.9943 14.83088991571918
KENT RIDGE 1            
1 41167U 15077B   26176.41452576  .00004041  00000+0  13448-3 0  9996
2 41167  14.9783 204.8006 0008195 354.5762   5.4470 15.23176152582354
GAOFEN-4                
1 41194U 15083A   26176.83114378 -.00000324  00000+0  00000+0 0  9991
2 41194   0.3803  83.9151 0004035 114.0016 120.9663  1.00271100 38614
JASON-3                 
1 41240U 16002A   26176.85709786 -.00000074  00000+0 -47829-4 0  9998
2 41240  66.0414 107.6084 0008414 272.3420  87.6635 12.87556162488364
SENTINEL-3A             
1 41335U 16011A   26176.84254146  .00000087  00000+0  53796-4 0  9999
2 41335  98.6246 244.1018 0001432  97.2129 262.9215 14.26734833539299
ZIYUAN 3-02 (ZY 3-02)   
1 41556U 16033A   26176.87234563  .00006001  00000+0  27114-3 0  9998
2 41556  97.3838 252.4796 0012445 257.2436 102.7409 15.21256334559308
CARTOSAT-2C             
1 41599U 16040A   26176.82060670  .00005382  00000+0  25820-3 0  9997
2 41599  97.4485 236.6797 0010485 104.7973 255.4424 15.19254959555029
SKYSAT-C1               
1 41601U 16040C   26176.61830515  .00011011  00000+0  31178-3 0  9990
2 41601  96.9565 207.8813 0002680  41.1254 319.0193 15.36434145559164
LAPAN-A3                
1 41603U 16040E   26176.80659527  .00004153  00000+0  13183-3 0  9990
2 41603  97.1488 172.6689 0009787 355.9027   4.2135 15.33156778556135
GAOFEN-3                
1 41727U 16049A   26176.89498373 -.00000115  00000+0 -21804-4 0  9991
2 41727  98.4014 184.5493 0001584  96.5932 263.5438 14.42215736519905
